STARLINK-4537           
1 53407U 22097V   23165.34660955  .00001283  00000+0  98671-4 0  9992
2 53407  53.2167 270.5800 0000902  86.2908 273.8188 15.08843163 47435
STARLINK-4491           
1 53408U 22097W   23165.34935027  .00000525  00000+0  51077-4 0  9995
2 53408  53.2178 280.3388 0000899  86.8772 273.2323 15.08832113 47290
STARLINK-4490           
1 53409U 22097X   23165.40916387 -.00005903  00000+0 -35282-3 0  9997
2 53409  53.2163 270.2613 0001354  76.7963 283.3180 15.08867690 47449
STARLINK-4492           
1 53410U 22097Y   23164.74950532 -.00001084  00000+0 -50020-4 0  9999
2 53410  53.2178 283.0272 0000967  76.9711 283.1390 15.08840606 47698
STARLINK-4497           
1 53411U 22097Z   23165.41927043  .00000034  00000+0  20234-4 0  9992
2 53411  53.2163 280.0230 0001041  86.8037 273.3074 15.08834681 47303
STARLINK-4496           
1 53412U 22097AA  23165.46710643  .00000345  00000+0  39777-4 0  9991
2 53412  53.2167 279.8041 0001166  95.2710 264.8415 15.08839215 47317
STARLINK-4500           
1 53413U 22097AB  23164.48086705 -.00000374  00000+0 -54178-5 0  9995
2 53413  53.2177 284.2322 0001003  81.0124 279.0982 15.08837035 47161
STARLINK-4304           
1 53414U 22097AC  23165.46342518  .00000349  00000+0  39976-4 0  9990
2 53414  53.2143 279.8263 0001041  92.1328 267.9783 15.08841911 47310
STARLINK-4479           
1 53415U 22097AD  23165.06230310 -.00000176  00000+0  70242-5 0  9994
2 53415  53.2170 281.6200 0000939 115.8239 244.2850 15.08843433 47259
STARLINK-4480           
1 53416U 22097AE  23165.44502341  .00001558  00000+0  11597-3 0  9993
2 53416  53.2166 279.8532 0001162  83.3133 276.7992 15.08836086 47313
STARLINK-4484           
1 53417U 22097AF  23165.05862356  .00000405  00000+0  43532-4 0  9991
2 53417  53.2169 281.6396 0000954  96.7789 263.3312 15.08843102 47257
STARLINK-4481           
1 53418U 22097AG  23165.28397505  .00000226  00000+0  32297-4 0  9993
2 53418  53.2176 270.1929 0001395  75.5023 284.6124 15.08842037 47430
STARLINK-4476           
1 53419U 22097AH  23165.05494525  .00000091  00000+0  23776-4 0  9991
2 53419  53.2164 281.6526 0000999  99.0633 261.0472 15.08843181 47251
STARLINK-4552           
1 53420U 22097AJ  23164.31526775  .00000333  00000+0  39016-4 0  9997
2 53420  53.2180 284.9776 0001114 105.3627 254.7488 15.08835980 47601
STARLINK-4545           
1 53421U 22097AK  23165.31622638  .00001352  00000+0  10298-3 0  9996
2 53421  53.2178 280.4791 0001067  78.8927 281.2185 15.08841164 47296
STARLINK-4546           
1 53422U 22097AL  23164.77158880  .00002632  00000+0  18341-3 0  9998
2 53422  53.2158 282.9270 0000973  96.1189 263.9914 15.08829155 47699
STARLINK-4539           
1 53423U 22097AM  23165.04854424 -.00000209  00000+0  49728-5 0  9991
2 53423  53.2177 281.6925 0001250  86.5295 273.5840 15.08842889 47250
STARLINK-4532           
1 53424U 22097AN  23165.36039126  .00004309  00000+0  28881-3 0  9990
2 53424  53.2186 280.2875 0001281 105.6211 254.4922 15.08822066 47305
STARLINK-4531           
1 53425U 22097AP  23165.43767085  .00000718  00000+0  63179-4 0  9991
2 53425  53.2181 279.9338 0001247  80.0888 280.0245 15.08833472 47315
STARLINK-4558           
1 53426U 22097AQ  23165.00804079  .00000213  00000+0  31486-4 0  9996
2 53426  53.2164 272.0235 0000947  88.5161 271.5940 15.08847676 47385
STARLINK-4541           
1 53427U 22097AR  23164.76790625  .00000336  00000+0  39185-4 0  9990
2 53427  53.2166 282.9440 0000929  91.9062 268.2037 15.08838507 47691
STARLINK-4540           
1 53428U 22097AS  23165.39812052  .00000353  00000+0  40289-4 0  9996
2 53428  53.2170 270.1939 0001033  88.5296 271.5814 15.08834374 47448
STARLINK-4543           
1 53429U 22097AT  23165.40180586  .00001420  00000+0  10731-3 0  9993
2 53429  53.2177 270.2137 0000864  86.4600 273.6491 15.08828120 47440
STARLINK-4538           
1 53430U 22097AU  23164.73203313 -.00000429  00000+0 -88902-5 0  9991
2 53430  53.2172 273.1423 0001313  75.9373 284.1765 15.08836744 47809
STARLINK-4548           
1 53431U 22097AV  23165.29045768  .00000901  00000+0  71662-4 0  9999
2 53431  53.2161 270.2436 0001121  85.5821 274.5300 15.10479652 47433
STARLINK-4557           
1 53432U 22097AW  23165.43487555  .00000181  00000+0  29478-4 0  9998
2 53432  53.2158 269.7085 0001028  96.1940 263.9169 15.08839979 47455
STARLINK-4549           
1 53433U 22097AX  23164.46338536 -.00000024  00000+0  16560-4 0  9990
2 53433  53.2157 274.3109 0001099  91.9274 268.1844 15.08837873 47307
STARLINK-4498           
1 53434U 22097AY  23164.30511363  .00000914  00000+0  75536-4 0  9990
2 53434  53.2172 274.7443 0001063  82.4046 277.7067 15.08836453 47770
STARLINK-4542           
1 53435U 22097AZ  23164.44496339 -.00000152  00000+0  85362-5 0  9995
2 53435  53.2167 274.1923 0001155  85.0635 275.0489 15.08835925 47308
STARLINK-4527           
1 53436U 22097BA  23165.29502549  .00000212  00000+0  31384-4 0  9991
2 53436  53.2169 270.2610 0001089  82.5674 277.5442 15.08842726 47439
