OBJECT_NAME,OBJECT_ID,EPOCH,MEAN_MOTION,ECCENTRICITY,INCLINATION,RA_OF_ASC_NODE,ARG_OF_PERICENTER,MEAN_ANOMALY,EPHEMERIS_TYPE,CLASSIFICATION_TYPE,NORAD_CAT_ID,ELEMENT_SET_NO,REV_AT_EPOCH,BSTAR,MEAN_MOTION_DOT,MEAN_MOTION_DDOT
STARLINK-4537,2022-097V,2023-06-14T08:19:07.065120,15.08843163,.0000902,53.2167,270.5800,86.2908,273.8188,0,U,53407,999,4743,.98671E-4,.1283E-4,0
STARLINK-4491,2022-097W,2023-06-14T08:23:03.863328,15.08832113,.0000899,53.2178,280.3388,86.8772,273.2323,0,U,53408,999,4729,.51077E-4,.525E-5,0
STARLINK-4490,2022-097X,2023-06-14T09:49:11.758368,15.08867690,.0001354,53.2163,270.2613,76.7963,283.3180,0,U,53409,999,4744,-.35282E-3,-.5903E-4,0
STARLINK-4492,2022-097Y,2023-06-13T17:59:17.259648,15.08840606,.0000967,53.2178,283.0272,76.9711,283.1390,0,U,53410,999,4769,-.5002E-4,-.1084E-4,0
STARLINK-4497,2022-097Z,2023-06-14T10:03:44.965152,15.08834681,.0001041,53.2163,280.0230,86.8037,273.3074,0,U,53411,999,4730,.20234E-4,.34E-6,0
STARLINK-4496,2022-097AA,2023-06-14T11:12:37.995552,15.08839215,.0001166,53.2167,279.8041,95.2710,264.8415,0,U,53412,999,4731,.39777E-4,.345E-5,0
STARLINK-4500,2022-097AB,2023-06-13T11:32:26.913120,15.08837035,.0001003,53.2177,284.2322,81.0124,279.0982,0,U,53413,999,4716,-.54178E-5,-.374E-5,0
STARLINK-4304,2022-097AC,2023-06-14T11:07:19.935552,15.08841911,.0001041,53.2143,279.8263,92.1328,267.9783,0,U,53414,999,4731,.39976E-4,.349E-5,0
STARLINK-4479,2022-097AD,2023-06-14T01:29:42.987840,15.08843433,.0000939,53.2170,281.6200,115.8239,244.2850,0,U,53415,999,4725,.70242E-5,-.176E-5,0
STARLINK-4480,2022-097AE,2023-06-14T10:40:50.022624,15.08836086,.0001162,53.2166,279.8532,83.3133,276.7992,0,U,53416,999,4731,.11597E-3,.1558E-4,0
STARLINK-4484,2022-097AF,2023-06-14T01:24:25.075584,15.08843102,.0000954,53.2169,281.6396,96.7789,263.3312,0,U,53417,999,4725,.43532E-4,.405E-5,0
STARLINK-4481,2022-097AG,2023-06-14T06:48:55.444320,15.08842037,.0001395,53.2176,270.1929,75.5023,284.6124,0,U,53418,999,4743,.32297E-4,.226E-5,0
STARLINK-4476,2022-097AH,2023-06-14T01:19:07.269600,15.08843181,.0000999,53.2164,281.6526,99.0633,261.0472,0,U,53419,999,4725,.23776E-4,.91E-6,0
STARLINK-4552,2022-097AJ,2023-06-13T07:33:59.133600,15.08835980,.0001114,53.2180,284.9776,105.3627,254.7488,0,U,53420,999,4760,.39016E-4,.333E-5,0
STARLINK-4545,2022-097AK,2023-06-14T07:35:21.959232,15.08841164,.0001067,53.2178,280.4791,78.8927,281.2185,0,U,53421,999,4729,.10298E-3,.1352E-4,0
STARLINK-4546,2022-097AL,2023-06-13T18:31:05.272320,15.08829155,.0000973,53.2158,282.9270,96.1189,263.9914,0,U,53422,999,4769,.18341E-3,.2632E-4,0
STARLINK-4539,2022-097AM,2023-06-14T01:09:54.222336,15.08842889,.000125,53.2177,281.6925,86.5295,273.5840,0,U,53423,999,4725,.49728E-5,-.209E-5,0
STARLINK-4532,2022-097AN,2023-06-14T08:38:57.804864,15.08822066,.0001281,53.2186,280.2875,105.6211,254.4922,0,U,53424,999,4730,.28881E-3,.4309E-4,0
STARLINK-4531,2022-097AP,2023-06-14T10:30:14.761440,15.08833472,.0001247,53.2181,279.9338,80.0888,280.0245,0,U,53425,999,4731,.63179E-4,.718E-5,0
STARLINK-4558,2022-097AQ,2023-06-14T00:11:34.724256,15.08847676,.0000947,53.2164,272.0235,88.5161,271.5940,0,U,53426,999,4738,.31486E-4,.213E-5,0
STARLINK-4541,2022-097AR,2023-06-13T18:25:47.100000,15.08838507,.0000929,53.2166,282.9440,91.9062,268.2037,0,U,53427,999,4769,.39185E-4,.336E-5,0
STARLINK-4540,2022-097AS,2023-06-14T09:33:17.612928,15.08834374,.0001033,53.2170,270.1939,88.5296,271.5814,0,U,53428,999,4744,.40289E-4,.353E-5,0
STARLINK-4543,2022-097AT,2023-06-14T09:38:36.026304,15.08828120,.0000864,53.2177,270.2137,86.4600,273.6491,0,U,53429,999,4744,.10731E-3,.142E-4,0
STARLINK-4538,2022-097AU,2023-06-13T17:34:07.662432,15.08836744,.0001313,53.2172,273.1423,75.9373,284.1765,0,U,53430,999,4780,-.88902E-5,-.429E-5,0
STARLINK-4548,2022-097AV,2023-06-14T06:58:15.543552,15.10479652,.0001121,53.2161,270.2436,85.5821,274.5300,0,U,53431,999,4743,.71662E-4,.901E-5,0
STARLINK-4557,2022-097AW,2023-06-14T10:26:13.247520,15.08839979,.0001028,53.2158,269.7085,96.1940,263.9169,0,U,53432,999,4745,.29478E-4,.181E-5,0
STARLINK-4549,2022-097AX,2023-06-13T11:07:16.495104,15.08837873,.0001099,53.2157,274.3109,91.9274,268.1844,0,U,53433,999,4730,.1656E-4,-.24E-6,0
STARLINK-4498,2022-097AY,2023-06-13T07:19:21.817632,15.08836453,.0001063,53.2172,274.7443,82.4046,277.7067,0,U,53434,999,4777,.75536E-4,.914E-5,0
STARLINK-4542,2022-097AZ,2023-06-13T10:40:44.836896,15.08835925,.0001155,53.2167,274.1923,85.0635,275.0489,0,U,53435,999,4730,.85362E-5,-.152E-5,0
STARLINK-4527,2022-097BA,2023-06-14T07:04:50.202336,15.08842726,.0001089,53.2169,270.2610,82.5674,277.5442,0,U,53436,999,4743,.31384E-4,.212E-5,0
